EUTELSAT 7A             
1 28187U 04008A   25349.45884683  .00000120  00000+0  00000+0 0  9998
2 28187   5.3648  74.2186 0001673 245.7743 150.3491  1.00273617 79513
EUTELSAT 174A           
1 28924U 05052A   25349.87768649  .00000030  00000+0  00000+0 0  9996
2 28924   3.7560  78.8166 0006156 186.0666 309.9021  1.00274856 50490
EUTELSAT HOTBIRD 13B    
1 29270U 06032A   25349.92102010  .00000178  00000+0  00000+0 0  9993
2 29270   1.1887  84.3455 0003583 175.3575 189.7596  1.00271620 45472
EUTELSAT HOTBIRD 13C    
1 33459U 08065A   25349.90455333 -.00000262  00000+0  00000+0 0  9997
2 33459   2.4796  81.3919 0001615 235.0847  43.9052  1.00045559 45503
EUTELSAT 36B            
1 36101U 09065A   25349.92448679  .00000133  00000+0  00000+0 0  9998
2 36101   0.0438  23.6871 0006390 239.2946 205.1816  1.00282429 58877
EUTELSAT KA-SAT 9A      
1 37258U 10069A   25349.13159144  .00000083  00000+0  00000+0 0  9991
2 37258   0.0494 337.1132 0002055 208.7317 314.5932  1.00273682 42163
EUTELSAT 7 WEST A       
1 37816U 11051A   25349.91304672 -.00000038  00000+0  00000+0 0  9998
2 37816   0.0623 349.5929 0005374 238.5706 178.0369  1.00271907 52030
EUTELSAT 16A            
1 37836U 11057A   25349.91764008  .00000127  00000+0  00000+0 0  9997
2 37836   0.0623  17.8343 0006116 251.3873 161.9574  1.00273588  5494
